[{"OBJECT_NAME":"X-SAT","OBJECT_ID":"2011-015C","EPOCH":"2026-03-09T22:53:38.580000","MEAN_MOTION":14.25171741,"ECCENTRICITY":0.0012844,"INCLINATION":98.3436,"RA_OF_ASC_NODE":50.7528,"ARG_OF_PERICENTER":275.8425,"MEAN_ANOMALY":84.1292,"EPHEMERIS_TYPE":0,"CLASSIFICATION_TYPE":"U","NORAD_CAT_ID":37389,"ELEMENT_SET_NO":999,"REV_AT_EPOCH":77354,"BSTAR":-4.3267073e-5,"MEAN_MOTION_DOT":-1.43e-6,"MEAN_MOTION_DDOT":0},{"OBJECT_NAME":"DMSP 5D-2 F13 DEB","OBJECT_ID":"1995-015AD","EPOCH":"2026-03-09T13:00:34.988832","MEAN_MOTION":14.27787581,"ECCENTRICITY":0.00049109,"INCLINATION":98.7474,"RA_OF_ASC_NODE":94.6035,"ARG_OF_PERICENTER":40.3948,"MEAN_ANOMALY":319.7597,"EPHEMERIS_TYPE":0,"CLASSIFICATION_TYPE":"U","NORAD_CAT_ID":40416,"ELEMENT_SET_NO":999,"REV_AT_EPOCH":57153,"BSTAR":0.0010096012,"MEAN_MOTION_DOT":2.45e-5,"MEAN_MOTION_DDOT":0}]
